#aV2014 12 19  0  0  0.00000000     288 DD+AD WGS84 FIT  NGA
## 1823 432000.00000000   300.00000000 57010 0.0000000000000
+   32     1  2  3  4  5  6  7  8  9 10 11 12 13 14 15 16 17
+         18 19 20 21 22 23 24 25 26 27 28 29 30 31 32  0  0
+          0  0  0  0  0  0  0  0  0  0  0  0  0  0  0  0  0
+          0  0  0  0  0  0  0  0  0  0  0  0  0  0  0  0  0
+          0  0  0  0  0  0  0  0  0  0  0  0  0  0  0  0  0
++         2  2  2  2  2  2  2  2  2  2  2  2  2  2  2  2  2
++         2  2  2  2  2  2  2  2  2  2  2  2  2  2  2  0  0
++         0  0  0  0  0  0  0  0  0  0  0  0  0  0  0  0  0
++         0  0  0  0  0  0  0  0  0  0  0  0  0  0  0  0  0
++         0  0  0  0  0  0  0  0  0  0  0  0  0  0  0  0  0
%c cc cc ccc ccc cccc cccc cccc cccc ccccc ccccc ccccc ccccc
%c cc cc ccc ccc cccc cccc cccc cccc ccccc ccccc ccccc ccccc
%f  0.0000000  0.000000000  0.00000000000  0.000000000000000
%f  0.0000000  0.000000000  0.00000000000  0.000000000000000
%i    0    0    0    0      0      0      0      0         0
%i    0    0    0    0      0      0      0      0         0
/*      NGA, ST. LOUIS,MO.                                  
/*   EPHEMERIS COMPUTED FROM  1 DAYS OF DATA                
/*   EPOCHA SMOOTHER                                       
/* CCCCCCCCCCCCCCCCCCCCCCCCCCCCCCCCCCCCCCCCCCCCCCCCCCCCCCCCC
*  2014 12 19  7 40  0.00000000
P  1  13595.439210 -22229.782245   4619.846148    -11.013764                    
V  1    172.450686   6617.977705  31145.697001      0.003618                    
P  2 -16649.570558   1692.474315 -20195.404917    536.720043                    
V  2   8871.221166 -25080.936629  -9740.907446      0.022359                    
P  3  17222.188487 -12849.776869 -15639.671418     86.353087                    
V  3  19948.643779   -125.432075  22017.514557      0.292486                    
P  4  17068.936330 -14814.089951  13426.820628     -4.497550                    
V  4  -4249.792451  17465.587800  24375.058329     -0.004706                    
P  5 -26555.139699   2017.851158  -1266.522176   -304.202597                    
V  5   1188.489654  -3265.665051 -31261.098809      0.048038                    
P  6 -10339.422985 -12723.800297 -20912.550289     30.309181                    
V  6  11433.617277 -23940.229907   8901.221035      0.081226                    
P  7   5991.535665 -24591.086468   7523.773165    423.586778                    
V  7   6415.115841  -7474.566242 -30266.565547      0.035639                    
P  8  18244.487983 -10829.953558 -15323.424040     16.820486                    
V  8  -8970.583573  18017.951832 -23711.153018      0.002082                    
P  9  -4006.235938 -22175.120970 -14056.522032    -31.288183                    
V  9  12312.608662  13109.441313 -24204.241743     -0.095870                    
P 10 -18397.843378 -10464.158380 -16672.501198   -154.861936                    
V 10  20100.920857  -3737.560909 -19868.229026     -0.017737                    
P 11  12112.996774 -19367.967860  12905.548866   -544.669450                    
V 11   2587.227080  17773.758164  23464.623549     -0.027997                    
P 12 -19919.946228  10457.354022 -14022.985787    254.703266                    
V 12 -17772.760645   -532.304966  25191.577167      0.028732                    
P 13 -18353.864355 -11948.581735  14796.519797    -70.907328                    
V 13  -7837.344168 -17470.448331 -23749.368065     -0.035908                    
P 14  15105.483857  21825.023371  -2042.154740    104.997257                    
V 14   -590.285048   3725.076830  31691.447263     -0.035784                    
P 15 -11593.613112  10667.959908  21295.020982   -221.202048                    
V 15 -17242.890113 -21212.220347   1548.659347     -0.022433                    
P 16  26735.264926   -316.761411  -1234.350662   -172.028529                    
V 16  -1409.267634   1653.176615 -32080.711394      0.030166                    
P 17 -14772.307938 -22220.862227    -95.498703   -144.793385                    
V 17   1667.351037  -1649.938017  31832.933873     -0.023754                    
P 18   3389.616745  15901.699038  21485.310055    366.160657                    
V 18 -26135.528815   3196.220032   1482.027795      0.026560                    
P 19  14986.707617  -3701.487604  21491.493571   -493.053584                    
V 19  13851.425115  23890.484116  -5061.503673     -0.015934                    
P 20  13493.847762 -15397.172960 -17088.269356    268.959073                    
V 20  21545.571400  -1392.686171  18558.402573      0.042804                    
P 21    348.777506  23364.699170  12896.696420   -401.049018                    
V 21  -8978.604881  13070.402379 -25134.938264     -0.021169                    
P 22  16895.718666  11269.521618  17415.093306    298.348202                    
V 22 -21358.979758   4710.340276  17726.129333      0.037303                    
P 23   5924.949236 -16209.767566 -19943.814190    -75.520067                    
V 23  16151.733950  20126.756503 -11903.791334     -0.027087                    
P 24 -14820.707481  20514.354234   7821.687512    -40.327679                    
V 24   1268.775407 -10337.903134  29569.075631     -0.006124                    
P 25  -7018.031063  14905.371285 -20878.822955      8.485460                    
V 25 -26255.436215   1985.502831  10422.067639     -0.021339                    
P 26 -17551.163045  -4658.335084  18820.967492   -162.153999                    
V 26 -11655.471502 -22362.421545 -15587.248580     -0.132243                    
P 27  19251.443416   6099.522994  17282.167749     38.119076                    
V 27  11655.899475  18633.743108 -19469.767618      0.027261                    
P 28 -11653.835032 -13147.717580  20579.263635    406.331047                    
V 28  24604.978979  -1509.013527  13271.088543      0.026324                    
P 29    847.783218  21254.658412 -15896.767191    580.492071                    
V 29 -12401.600575 -16035.907821 -22024.658167      0.024551                    
P 30  -2300.159561 -20498.515171  16706.239428    -85.288962                    
V 30  11760.801514 -17789.629508 -20254.575626     -0.010357                    
P 31  11388.379841  10005.887109 -21624.755961    327.120788                    
V 31 -12575.278218  24808.853182   5143.828122     -0.007094                    
P 32  24962.942549  -5123.153507  -6379.358463   -267.476255                    
V 32   8322.621083   3398.521224  30363.730416      0.087906                    
EOF
